[{"OBJECT_NAME":"OBJECT B","OBJECT_ID":"2024-092B","EPOCH":"2026-03-09T22:35:16.756224","MEAN_MOTION":15.26654665,"ECCENTRICITY":0.00097063,"INCLINATION":97.6334,"RA_OF_ASC_NODE":195.5822,"ARG_OF_PERICENTER":166.5945,"MEAN_ANOMALY":193.5553,"EPHEMERIS_TYPE":0,"CLASSIFICATION_TYPE":"U","NORAD_CAT_ID":59774,"ELEMENT_SET_NO":999,"REV_AT_EPOCH":10038,"BSTAR":0.00052893964,"MEAN_MOTION_DOT":0.00013825,"MEAN_MOTION_DDOT":0},{"OBJECT_NAME":"STARLINK-35773","OBJECT_ID":"2025-294N","EPOCH":"2026-03-09T21:59:39.067296","MEAN_MOTION":15.27609709,"ECCENTRICITY":0.00011528,"INCLINATION":43.0016,"RA_OF_ASC_NODE":36.8141,"ARG_OF_PERICENTER":247.5495,"MEAN_ANOMALY":112.5235,"EPHEMERIS_TYPE":0,"CLASSIFICATION_TYPE":"U","NORAD_CAT_ID":67042,"ELEMENT_SET_NO":999,"REV_AT_EPOCH":1483,"BSTAR":0.0013692698,"MEAN_MOTION_DOT":0.00037644,"MEAN_MOTION_DDOT":0}]
